[
    {
        "Altitude(m)": 607910.9894807544,
        "Argument of Periapsis(deg)": 0.0,
        "Eccentricity": 0.0,
        "Inclination(deg)": 60.0,
        "Latitude(deg)": -14.292833959721328,
        "Longitude(deg)": 118.44264208807977,
        "Mean Anomaly(deg)": 196.36359999999996,
        "RAAN(deg)": 30.0,
        "Satellite Name": "Test1 144",
        "Satellite Number": 144,
        "Semi-Major Axis(m)": 6980739.136638005,
        "Time(s)": 0
    },
    {
        "Altitude(m)": 608060.2224296198,
        "Argument of Periapsis(deg)": 0.00010418945913296404,
        "Eccentricity": 0.0,
        "Inclination(deg)": 60.0,
        "Latitude(deg)": -14.826495477798487,
        "Longitude(deg)": 118.73125117089897,
        "Mean Anomaly(deg)": 196.9837061454618,
        "RAAN(deg)": 29.99957995086026,
        "Satellite Name": "Test1 144",
        "Satellite Number": 144,
        "Semi-Major Axis(m)": 6980739.136638005,
        "Time(s)": 10
    }
]